{
    "links": {
        "self": "http://www.neowsapp.com/rest/v1/neo/3092395?api_key=iIulBulltgU6a56xZRHN4H3l9WmuAYTsLGpBGhQ2"
    },
    "id": "3092395",
    "neo_reference_id": "3092395",
    "name": "(2001 UB5)",
    "designation": "2001 UB5",
    "nasa_jpl_url": "http://ssd.jpl.nasa.gov/sbdb.cgi?sstr=3092395",
    "absolute_magnitude_h": 21.9,
    "estimated_diameter": {
        "kilometers": {
            "estimated_diameter_min": 0.1108038821,
            "estimated_diameter_max": 0.2477650126
        },
        "meters": {
            "estimated_diameter_min": 110.8038821264,
            "estimated_diameter_max": 247.7650126055
        },
        "miles": {
            "estimated_diameter_min": 0.068850319,
            "estimated_diameter_max": 0.1539539936
        },
        "feet": {
            "estimated_diameter_min": 363.5298086356,
            "estimated_diameter_max": 812.8773639568
        }
    },
    "is_potentially_hazardous_asteroid": false,
    "close_approach_data": [
        {
            "close_approach_date": "2001-10-19",
            "close_approach_date_full": "2001-Oct-19 06:08",
            "epoch_date_close_approach": 1003471680000,
            "relative_velocity": {
                "kilometers_per_second": "25.1227923024",
                "kilometers_per_hour": "90442.0522885741",
                "miles_per_hour": "56197.1741011976"
            },
            "miss_distance": {
                "astronomical": "0.1401784977",
                "lunar": "54.5294356053",
                "kilometers": "20970404.675719899",
                "miles": "13030405.2375726462"
            },
            "orbiting_body": "Earth"
        }
    ],
    "orbital_data": {
        "orbit_id": "7",
        "orbit_determination_date": "2017-04-06 09:15:58",
        "first_observation_date": "2001-10-18",
        "last_observation_date": "2001-10-21",
        "data_arc_in_days": 3,
        "observations_used": 17,
        "orbit_uncertainty": "9",
        "minimum_orbit_intersection": ".129643",
        "jupiter_tisserand_invariant": "3.778",
        "epoch_osculation": "2452202.5",
        "eccentricity": ".3431845226282699",
        "semi_major_axis": "1.708771385026393",
        "inclination": "47.05972118894272",
        "ascending_node_longitude": "27.26798464361507",
        "orbital_period": "815.8764000993992",
        "perihelion_distance": "1.122347492975263",
        "perihelion_argument": "8.34314566666462",
        "aphelion_distance": "2.295195277077524",
        "perihelion_time": "2452208.369975457141",
        "mean_anomaly": "357.409912623636",
        "mean_motion": ".4412433059175885",
        "equinox": "J2000",
        "orbit_class": {
            "orbit_class_type": "AMO",
            "orbit_class_description": "Near-Earth asteroid orbits similar to that of 1221 Amor",
            "orbit_class_range": "1.017 AU < q (perihelion) < 1.3 AU"
        }
    },
    "is_sentry_object": false
}